CIC_OEM_VERS = 2.0
CREATION_DATE = 2025-03-05T14:15:02.885517
ORIGINATOR = ISAE-SUPAERO


META_START
OBJECT_NAME = PLEIADES-NEO3
OBJECT_ID = PLEIADES-NEO3
CENTER_NAME = Earth
REF_FRAME = EME2000
TIME_SYSTEM = UTC
START_TIME = 2025-03-05T04:08:34.912
USEABLE_START_TIME = 2025-03-05T04:08:34.912
USEABLE_STOP_TIME = 2025-03-05T23:58:34.912
STOP_TIME = 2025-03-05T23:58:34.912
INTERPOLATION = lagrange
INTERPOLATION_DEGREE = 5
META_STOP


60739 14914.912 -5414.8404 4439.8225 14.685468 0.6695764000000001 0.79082266 7.473215100000001
60739 15334.912 -4594.6827 4311.1505 3046.1217 3.1569021 -1.3831139000000001 6.7141781
60739 15754.912 -2849.3491000000004 3314.4099 5462.649 5.0060889 -3.276993 4.5968837
60739 16174.912 -531.13508 1651.1463 6777.1698 5.843783800000001 -4.5073281 1.5563279
60739 16594.912 1893.8877 -343.97047 6726.3055 5.5065815 -4.8308178 -1.7941983000000001
60739 17014.912 3938.3466000000003 -2269.9126 5320.6008 4.0622014 -4.1834076 -4.7855072000000005
60739 17434.912 5190.3933 -3739.0836000000004 2841.8181 1.7969791000000002 -2.6922613 -6.816191600000001
60739 17854.912 5395.7336 -4454.215099999999 -211.595 -0.83429953 -0.65577574 -7.4722634
60739 18274.912 4513.036099999999 -4271.0635999999995 -3221.7689 -3.2970542999999997 1.5128111 -6.6167422
60739 18694.912 2720.2994 -3226.7997 -5581.2711 -5.0921142 3.3733557000000003 -4.4268986
60739 19114.912 380.28547 -1533.412 -6815.174 -5.8600355 4.5521845 -1.3488206
60739 19534.912 -2036.1771 468.06639 -6676.2649 -5.4502172 4.8157578 1.9991004
60739 19954.912 -4043.2876 2375.3469 -5192.0535 -3.9435621000000003 4.110991200000001 4.9481437
60739 20374.912 -5236.0797 3804.3151000000003 -2658.8756000000003 -1.6384843 2.5759499999999997 6.9040360000000005
60739 20794.912 -5372.3541 4465.5104 411.37955 1.0010903 0.51824329 7.4646797
60739 21214.912 -4423.7205 4224.9253 3398.3646000000003 3.4362908 -1.6419831 6.5158929
60739 21634.912 -2577.154 3127.0902 5695.647 5.182767300000001 -3.4738535 4.253439500000001
60739 22054.912 -210.45654000000002 1398.5365 6842.5874 5.8797981 -4.603087400000001 1.1229105
60739 22474.912 2196.7354 -610.3169399999999 6606.7910999999995 5.386562700000001 -4.7988817 -2.2261319
60739 22894.912 4161.1765000000005 -2496.167 5035.9629 3.8073874 -4.0273179 -5.1256775
60739 23314.912 5286.4843 -3878.6471 2447.0267000000003 1.459128 -2.4428690000000004 -6.9906309
60739 23734.912 5345.427 -4478.782700000001 -636.8798800000001 -1.1828894 -0.36615229 -7.441796900000001
60739 24154.912 4327.316 -4176.5096 -3592.1597 -3.5818137 1.7803706 -6.3904001
60739 24574.912 2439.0226000000002 -3034.5063999999998 -5823.8945 -5.255164 3.563557 -4.0561909
60739 24994.912 61.761963 -1284.2147 -6885.349 -5.8721103 4.6289046 -0.91275946
60739 25414.912 -2327.8583 723.1394300000001 -6564.8623 -5.3131065 4.7671329 2.413477
60739 25834.912 -4250.7567 2585.3799 -4925.312400000001 -3.6863456 3.9488668 5.2618906
60739 26254.912 -5318.8415 3927.7198 -2292.6062 -1.3105616 2.3318243 7.0583327
60739 26674.912 -5313.504900000001 4477.245599999999 803.1976500000001 1.3366040000000001 0.23918728 7.4298697
60739 27094.912 -4233.8836 4121.5683 3736.1226 3.7160434 -1.9038036999999999 6.2954214
60739 27514.912 -2298.2516 2932.6428 5911.911599999999 5.3422939 -3.6599747000000002 3.8870882000000004
60739 27934.912 103.87332 1149.738 6891.6808 5.8881042 -4.6759625 0.69048227
60739 28354.912 2482.6068 -863.4605200000001 6475.657200000001 5.2457422 -4.7470336 -2.6379305
60739 28774.912 4360.8967999999995 -2702.6519 4750.7223 3.5447471999999998 -3.8606744 -5.4356037
60739 29194.912 5359.0127999999995 -3996.373 2064.4948 1.1263116 -2.1939261 -7.1358642
60739 29614.912 5275.0135 -4483.1627 -1039.7688 -1.5189808 -0.08464698500000001 -7.3916039
60739 30034.912 4127.2408 -4065.8754 -3933.7708 -3.8525889 2.0371132 -6.1541604
60739 30454.912 2148.8884 -2830.5182999999997 -6034.947400000001 -5.4056159 3.7434777 -3.6816279
60739 30874.912 -260.43213000000003 -1027.547 -6922.9776 -5.8716846 4.6955142 -0.47569782
60739 31294.912 -2617.617 981.1635200000001 -6421.219599999999 -5.1616858 4.7068312 2.8247332000000003
60739 31714.912 -4450.035 2793.0765 -4629.2521 -3.4142626000000003 3.7735722000000003 5.5638187
60739 32134.912 -5387.9854000000005 4043.5991000000004 -1904.2271 -0.97321318 2.0771583000000002 7.1888000000000005
60739 32554.912 -5239.3117999999995 4478.5082999999995 1205.1211 1.6699197 -0.042415663000000006 7.3629104
60739 32974.912 -4032.5758 4008.9954 4070.4122 3.9777071999999998 -2.1549594 6.046186700000001
60739 33394.912 -2011.5389 2729.9727000000003 6111.7415 5.4807001 -3.8307113 3.5074665
60739 33814.912 415.18025 900.41137 6917.4326 5.877043800000001 -4.7322448999999995 0.26279705000000003
60739 34234.912 2758.1530000000002 -1110.5673000000002 6325.3661 5.0890078999999995 -4.6800383000000005 -3.0342933
60739 34654.912 4545.036 -2897.6406 4454.7623 3.2735732 -3.6836695 -5.7210422
60739 35074.912 5414.4615 -4099.8009 1682.6272 0.7952094100000001 -1.9424183000000002 -7.2524014
60739 35494.912 5190.501700000001 -4474.0864 -1430.2836000000002 -1.8428681999999998 0.19035470000000002 -7.3155012
60739 35914.912 3920.1162999999997 -3946.3702000000003 -4254.026 -4.1036965 2.2799515 -5.900979599999999
60739 36334.912 1860.8298 -2624.6254 -6220.3345 -5.5338133 3.9053808 -3.3035584
60739 36754.912 -571.66244 -776.57235 -6936.3104 -5.8519935 4.7447029 -0.048273482
60739 37174.912 -2889.6441 1226.9835 -6259.4947 -4.9977329 4.633427 3.2168286
60739 37594.912 -4628.013400000001 2984.3366 -4324.302900000001 -3.1378407000000004 3.5914473 5.8419661
60739 38014.912 -5434.9976 4141.1341 -1516.383 -0.63898442 1.8221326 7.2965341
60739 38434.912 -5145.536400000001 4462.3955000000005 1597.5223 1.9942302 -0.31904946 7.2761135999999995
60739 38854.912 -3816.5587 3882.1566000000003 4387.8128 4.2253436 -2.3964092999999997 5.7819807
60739 39274.912 -1716.8767 2518.0009 6289.8571 5.6011916 -3.9876975000000003 3.1200972
60739 39694.912 728.9185699999999 646.2261500000001 6920.549400000001 5.8463871 -4.7732181 -0.16850275
60739 40114.912 3027.9177999999997 -1355.806 6153.298900000001 4.9137561 -4.5970794999999995 -3.4227062000000004
60739 40534.912 4716.589900000001 -3084.5516000000002 4142.5963 2.9892169 -3.4936296000000002 -5.9880426
60739 40954.912 5453.518599999999 -4190.8674 1293.8581000000001 0.45955683 -1.6839728 -7.3439411
60739 41374.912 5089.7516 -4451.3535999999995 -1816.8618999999999 -2.1615601 0.46452811000000005 -7.2136942
60739 41794.912 3700.3924 -3814.8913 -4560.612 -4.3418087 2.5149153 -5.6272984
60739 42214.912 1566.7653 -2411.2249 -6385.2688 -5.6441837 4.054321600000001 -2.9140414999999997
60739 42634.912 -881.0583100000001 -524.09919 -6926.579900000001 -5.8134073 4.778733 0.3800637
60739 43054.912 -3152.2839 1467.9776000000002 -6076.4801 -4.8172181 4.545507 3.5997889
60739 43474.912 -4790.6038 3165.2199 -4003.6981 -2.8499646 3.3978875 6.1028009
60739 43894.912 -5462.7605 4223.9235 -1122.2848999999999 -0.30219421999999996 1.5621429 7.3818737
60739 44314.912 -5033.1456 4430.768599999999 1986.3516000000002 2.313177 -0.59441867 7.1658479
60739 44734.912 -3585.8603 3741.7784 4692.4157000000005 4.4597988 -2.629796 5.4979676
60739 45154.912 -1414.9521000000002 2297.7504 6449.2979000000005 5.701789799999999 -4.1300984 2.7214758000000003
60739 45574.912 1041.3568 390.38769 6902.7007 5.7945693 -4.7968602 -0.59869505
60739 45994.912 3288.1402000000003 -1595.5508 5963.4757 4.7211965000000005 -4.4980827 -3.797189
60739 46414.912 4872.916200000001 -3260.2183 3820.6342000000004 2.6956612 -3.2928509 -6.232016300000001
60739 46834.912 5475.554400000001 -4267.750900000001 905.82528 0.12459229000000001 -1.4224652000000002 -7.409453900000001
60739 47254.912 4974.0606 -4414.705900000001 -2192.2687 -2.4708926 0.73408574 -7.0892897999999995
60739 47674.912 3468.8462999999997 -3670.9847999999997 -4847.8004 -4.5657287 2.7397626 -5.3406658
60739 48094.912 1267.3963999999999 -2190.2886000000003 -6526.8195000000005 -5.7377560999999995 4.1901 -2.5188308000000004
60739 48514.912 -1188.4568000000002 -270.03552 -6892.8821 -5.7572401 4.7978873 0.80518902
60739 48934.912 -3405.887 1704.3251 -5872.9542 -4.6213923 4.4432365 3.9693649
60739 49354.912 -4938.9587 3336.1511 -3670.2741 -2.5530854 3.1938308 6.3407938999999995
60739 49774.912 -5478.4648 4296.8618 -727.0731999999999 0.029646707 1.3012871000000001 7.4336454000000005
60739 50194.912 -4913.6547 4391.3337 2362.6240000000003 2.6123018000000005 -0.8578708 7.0265168000000005
60739 50614.912 -3356.6275 3599.1641 4974.6987 4.6669783 -2.8425683 5.2017673
60739 51034.912 -1125.0473000000002 2083.5742 6583.903700000001 5.7773634000000005 -4.250524400000001 2.3306416
60739 51454.912 1332.6683 149.28104000000002 6866.8874000000005 5.7260643 -4.8029479 -1.0059242000000002
60739 51874.912 3522.6918 -1814.9362 5767.1595 4.5241124 -4.3904942 -4.1417915
60739 52294.912 5004.0905999999995 -3413.9514 3504.6512000000002 2.4087726 -3.0931592 -6.4479662
60739 52714.912 5479.8255 -4326.9984 535.10486 -0.19708174 -1.1683270000000001 -7.4506088
60739 53134.912 4846.4686 -4364.2296 -2542.6976 -2.7619446 0.99011769 -6.9521085000000005
60739 53554.912 3237.31 -3522.6765 -5106.7375999999995 -4.7685875 2.9478415 -5.0484272
60739 53974.912 976.49325 -1972.0591000000002 -6640.3634 -5.8127113 4.3093453 -2.1300256
60739 54394.912 -1480.6398000000002 -25.014911 -6835.8191 -5.687839100000001 4.8037526 1.2152559
60739 54814.912 -3640.0153 1926.9841000000001 -5653.5285 -4.4186701 4.3323255 4.318843200000001
60739 55234.912 -5066.3676 3491.0633 -3329.0425 -2.2558626 2.9864419 6.5566108000000005
60739 55654.912 -5470.211 4350.3731 -331.89225 0.36641124 1.0348113 7.4701239
60739 56074.912 -4769.1101 4330.901900000001 2732.5386000000003 2.9143216 -1.1254991 6.871255199999999
60739 56494.912 -3104.9476 3436.8615 5243.914 4.8708364 -3.0553194 4.8857308999999995
60739 56914.912 -815.9315300000001 1851.2553 6697.7308 5.8423514 -4.3654836999999995 1.9195326000000001
